{"type": "FeatureCollection", "features": [ {"type": "Feature", "properties": {"norad_id": 34529, "name": "IRIDIUM 33 DEB", "group": "iridium-33-debris", "lat": -9.586534375863593, "lon": -145.00763434328368, "alt_km": 757.3456381676142, "timestamp": "2025-12-15T04:01:20.837220+00:00", "meta": {"OBJECT_NAME": "IRIDIUM 33 DEB", "OBJECT_ID": "1997-051HW", "EPOCH": "2025-12-14T03:48:27.167328", "MEAN_MOTION": 14.40617171, "ECCENTRICITY": 0.00049833, "INCLINATION": 86.3641, "RA_OF_ASC_NODE": 34.807, "ARG_OF_PERICENTER": 172.3273, "MEAN_ANOMALY": 187.8004, "EPHEMERIS_TYPE": 0, "CLASSIFICATION_TYPE": "U", "NORAD_CAT_ID": 34529, "ELEMENT_SET_NO": 999, "REV_AT_EPOCH": 88162, "BSTAR": 0.00014944664, "MEAN_MOTION_DOT": 4.96e-06, "MEAN_MOTION_DDOT": 0}, "tle": {"line1": "1 34529U 97051HW  25348.15864777  .00000496  00000+0  14945-3 0  9996", "line2": "2 34529  86.3641  34.8070 0004983 172.3273 187.8004 14.40617171881629"}}, "geometry": {"type": "Point", "coordinates": [-145.00763434328368, -9.586534375863593]}}, {"type": "Feature", "properties": {"norad_id": 34538, "name": "IRIDIUM 33 DEB", "group": "iridium-33-debris", "lat": 44.543002501269655, "lon": 8.16681307685751, "alt_km": 743.8517886352083, "timestamp": "2025-12-15T04:01:20.837230+00:00", "meta": {"OBJECT_NAME": "IRIDIUM 33 DEB", "OBJECT_ID": "1997-051JF", "EPOCH": "2025-12-14T06:47:29.485824", "MEAN_MOTION": 14.42660528, "ECCENTRICITY": 0.00326715, "INCLINATION": 86.2774, "RA_OF_ASC_NODE": 4.8803, "ARG_OF_PERICENTER": 322.7604, "MEAN_ANOMALY": 170.167, "EPHEMERIS_TYPE": 0, "CLASSIFICATION_TYPE": "U", "NORAD_CAT_ID": 34538, "ELEMENT_SET_NO": 999, "REV_AT_EPOCH": 87778, "BSTAR": 0.0010767413, "MEAN_MOTION_DOT": 3.621e-05, "MEAN_MOTION_DDOT": 0}, "tle": {"line1": "1 34538U 97051JF  25348.28298016  .00003621  00000+0  10767-2 0  9997", "line2": "2 34538  86.2774   4.8803 0032671 322.7604 170.1670 14.42660528877782"}}, "geometry": {"type": "Point", "coordinates": [8.16681307685751, 44.543002501269655]}}, {"type": "Feature", "properties": {"norad_id": 34540, "name": "IRIDIUM 33 DEB", "group": "iridium-33-debris", "lat": 27.55504980384435, "lon": -51.57325917027252, "alt_km": 649.2425425797101, "timestamp": "2025-12-15T04:01:20.837241+00:00", "meta": {"OBJECT_NAME": "IRIDIUM 33 DEB", "OBJECT_ID": "1997-051JH", "EPOCH": "2025-12-13T21:13:41.307168", "MEAN_MOTION": 14.75357802, "ECCENTRICITY": 0.00166291, "INCLINATION": 86.3099, "RA_OF_ASC_NODE": 307.0836, "ARG_OF_PERICENTER": 155.1807, "MEAN_ANOMALY": 262.2011, "EPHEMERIS_TYPE": 0, "CLASSIFICATION_TYPE": "U", "NORAD_CAT_ID": 34540, "ELEMENT_SET_NO": 999, "REV_AT_EPOCH": 89038, "BSTAR": 0.0017757378, "MEAN_MOTION_DOT": 0.00012101, "MEAN_MOTION_DDOT": 0}, "tle": {"line1": "1 34540U 97051JH  25347.88450587  .00012101  00000+0  17757-2 0  9997", "line2": "2 34540  86.3099 307.0836 0016629 155.1807 262.2011 14.75357802890385"}}, "geometry": {"type": "Point", "coordinates": [-51.57325917027252, 27.55504980384435]}}, {"type": "Feature", "properties": {"norad_id": 34648, "name": "IRIDIUM 33 DEB", "group": "iridium-33-debris", "lat": -20.75371750452101, "lon": -80.40456485396587, "alt_km": 769.730172051587, "timestamp": "2025-12-15T04:01:20.837251+00:00", "meta": {"OBJECT_NAME": "IRIDIUM 33 DEB", "OBJECT_ID": "1997-051JZ", "EPOCH": "2025-12-13T19:47:40.836480", "MEAN_MOTION": 14.11548438, "ECCENTRICITY": 0.01824148, "INCLINATION": 86.3898, "RA_OF_ASC_NODE": 281.5085, "ARG_OF_PERICENTER": 295.4937, "MEAN_ANOMALY": 62.7476, "EPHEMERIS_TYPE": 0, "CLASSIFICATION_TYPE": "U", "NORAD_CAT_ID": 34648, "ELEMENT_SET_NO": 999, "REV_AT_EPOCH": 84976, "BSTAR": 0.007354752, "MEAN_MOTION_DOT": 0.00015643, "MEAN_MOTION_DDOT": 0}, "tle": {"line1": "1 34648U 97051JZ  25347.82477820  .00015643  00000+0  73548-2 0  9993", "line2": "2 34648  86.3898 281.5085 0182414 295.4937  62.7476 14.11548438849762"}}, "geometry": {"type": "Point", "coordinates": [-80.40456485396587, -20.75371750452101]}}, {"type": "Feature", "properties": {"norad_id": 34651, "name": "IRIDIUM 33 DEB", "group": "iridium-33-debris", "lat": 20.57060362828927, "lon": -41.85358890955169, "alt_km": 723.4537124991512, "timestamp": "2025-12-15T04:01:20.837261+00:00", "meta": {"OBJECT_NAME": "IRIDIUM 33 DEB", "OBJECT_ID": "1997-051KC", "EPOCH": "2025-12-14T03:41:28.490208", "MEAN_MOTION": 14.25850075, "ECCENTRICITY": 0.0142124, "INCLINATION": 86.2826, "RA_OF_ASC_NODE": 139.9759, "ARG_OF_PERICENTER": 199.4492, "MEAN_ANOMALY": 160.1246, "EPHEMERIS_TYPE": 0, "CLASSIFICATION_TYPE": "U", "NORAD_CAT_ID": 34651, "ELEMENT_SET_NO": 999, "REV_AT_EPOCH": 85916, "BSTAR": 0.0035077046, "MEAN_MOTION_DOT": 9.301e-05, "MEAN_MOTION_DDOT": 0}, "tle": {"line1": "1 34651U 97051KC  25348.15380197  .00009301  00000+0  35077-2 0  9993", "line2": "2 34651  86.2826 139.9759 0142124 199.4492 160.1246 14.25850075859164"}}, "geometry": {"type": "Point", "coordinates": [-41.85358890955169, 20.57060362828927]}}, {"type": "Feature", "properties": {"norad_id": 34652, "name": "IRIDIUM 33 DEB", "group": "iridium-33-debris", "lat": 12.57434706364839, "lon": 158.10098186577022, "alt_km": 697.4675211447493, "timestamp": "2025-12-15T04:01:20.837272+00:00", "meta": {"OBJECT_NAME": "IRIDIUM 33 DEB", "OBJECT_ID": "1997-051KD", "EPOCH": "2025-12-14T05:57:05.027904", "MEAN_MOTION": 14.62079041, "ECCENTRICITY": 0.00257778, "INCLINATION": 86.3313, "RA_OF_ASC_NODE": 339.3303, "ARG_OF_PERICENTER": 292.7931, "MEAN_ANOMALY": 77.4151, "EPHEMERIS_TYPE": 0, "CLASSIFICATION_TYPE": "U", "NORAD_CAT_ID": 34652, "ELEMENT_SET_NO": 999, "REV_AT_EPOCH": 88506, "BSTAR": 0.0011175888, "MEAN_MOTION_DOT": 5.659e-05, "MEAN_MOTION_DDOT": 0}, "tle": {"line1": "1 34652U 97051KD  25348.24797486  .00005659  00000+0  11176-2 0  9993", "line2": "2 34652  86.3313 339.3303 0025777 292.7931  77.4151 14.62079041885067"}}, "geometry": {"type": "Point", "coordinates": [158.10098186577022, 12.57434706364839]}}, {"type": "Feature", "properties": {"norad_id": 34690, "name": "IRIDIUM 33 DEB", "group": "iridium-33-debris", "lat": -30.60486173499629, "lon": 33.78931811322328, "alt_km": 710.4693594924238, "timestamp": "2025-12-15T04:01:20.837282+00:00", "meta": {"OBJECT_NAME": "IRIDIUM 33 DEB", "OBJECT_ID": "1997-051KM", "EPOCH": "2025-12-14T03:39:14.126112", "MEAN_MOTION": 14.55103123, "ECCENTRICITY": 0.0010693, "INCLINATION": 86.3785, "RA_OF_ASC_NODE": 36.3774, "ARG_OF_PERICENTER": 25.2522, "MEAN_ANOMALY": 28.8902, "EPHEMERIS_TYPE": 0, "CLASSIFICATION_TYPE": "U", "NORAD_CAT_ID": 34690, "ELEMENT_SET_NO": 999, "REV_AT_EPOCH": 88115, "BSTAR": 0.00054232235, "MEAN_MOTION_DOT": 2.362e-05, "MEAN_MOTION_DDOT": 0}, "tle": {"line1": "1 34690U 97051KM  25348.15224683  .00002362  00000+0  54232-3 0  9998", "line2": "2 34690  86.3785  36.3774 0010693  25.2522  28.8902 14.55103123881155"}}, "geometry": {"type": "Point", "coordinates": [33.78931811322328, -30.60486173499629]}}, {"type": "Feature", "properties": {"norad_id": 34693, "name": "IRIDIUM 33 DEB", "group": "iridium-33-debris", "lat": -63.4085537779269, "lon": -64.8016617142291, "alt_km": 490.3521595711318, "timestamp": "2025-12-15T04:01:20.837292+00:00", "meta": {"OBJECT_NAME": "IRIDIUM 33 DEB", "OBJECT_ID": "1997-051KQ", "EPOCH": "2025-12-14T08:32:13.204032", "MEAN_MOTION": 15.28431525, "ECCENTRICITY": 0.00132971, "INCLINATION": 86.3039, "RA_OF_ASC_NODE": 303.022, "ARG_OF_PERICENTER": 50.2441, "MEAN_ANOMALY": 101.7244, "EPHEMERIS_TYPE": 0, "CLASSIFICATION_TYPE": "U", "NORAD_CAT_ID": 34693, "ELEMENT_SET_NO": 999, "REV_AT_EPOCH": 88939, "BSTAR": 0.0050021575, "MEAN_MOTION_DOT": 0.00141107, "MEAN_MOTION_DDOT": 0}, "tle": {"line1": "1 34693U 97051KQ  25348.35570838  .00141107  00000+0  50022-2 0  9992", "line2": "2 34693  86.3039 303.0220 0013297  50.2441 101.7244 15.28431525889396"}}, "geometry": {"type": "Point", "coordinates": [-64.8016617142291, -63.4085537779269]}}, {"type": "Feature", "properties": {"norad_id": 34696, "name": "IRIDIUM 33 DEB", "group": "iridium-33-debris", "lat": -16.6835666771291, "lon": -152.4612977120571, "alt_km": 639.5971571458831, "timestamp": "2025-12-15T04:01:20.837302+00:00", "meta": {"OBJECT_NAME": "IRIDIUM 33 DEB", "OBJECT_ID": "1997-051KT", "EPOCH": "2025-12-14T02:47:44.257344", "MEAN_MOTION": 14.65206988, "ECCENTRICITY": 0.00741221, "INCLINATION": 86.1864, "RA_OF_ASC_NODE": 26.882, "ARG_OF_PERICENTER": 162.7009, "MEAN_ANOMALY": 252.4985, "EPHEMERIS_TYPE": 0, "CLASSIFICATION_TYPE": "U", "NORAD_CAT_ID": 34696, "ELEMENT_SET_NO": 999, "REV_AT_EPOCH": 86693, "BSTAR": 0.0047760209, "MEAN_MOTION_DOT": 0.00026862, "MEAN_MOTION_DDOT": 0}, "tle": {"line1": "1 34696U 97051KT  25348.11648446  .00026862  00000+0  47760-2 0  9995", "line2": "2 34696  86.1864  26.8820 0074122 162.7009 252.4985 14.65206988866936"}}, "geometry": {"type": "Point", "coordinates": [-152.4612977120571, -16.6835666771291]}}, {"type": "Feature", "properties": {"norad_id": 34765, "name": "IRIDIUM 33 DEB", "group": "iridium-33-debris", "lat": -50.56795468949766, "lon": -143.81520456681832, "alt_km": 754.0651082826698, "timestamp": "2025-12-15T04:01:20.837313+00:00", "meta": {"OBJECT_NAME": "IRIDIUM 33 DEB", "OBJECT_ID": "1997-051LJ", "EPOCH": "2025-12-14T03:54:12.794976", "MEAN_MOTION": 14.4047032, "ECCENTRICITY": 0.00155921, "INCLINATION": 86.3397, "RA_OF_ASC_NODE": 32.1513, "ARG_OF_PERICENTER": 206.4043, "MEAN_ANOMALY": 216.0627, "EPHEMERIS_TYPE": 0, "CLASSIFICATION_TYPE": "U", "NORAD_CAT_ID": 34765, "ELEMENT_SET_NO": 999, "REV_AT_EPOCH": 87634, "BSTAR": 0.00050106908, "MEAN_MOTION_DOT": 1.614e-05, "MEAN_MOTION_DDOT": 0}, "tle": {"line1": "1 34765U 97051LJ  25348.16264809  .00001614  00000+0  50107-3 0  9992", "line2": "2 34765  86.3397  32.1513 0015592 206.4043 216.0627 14.40470320876346"}}, "geometry": {"type": "Point", "coordinates": [-143.81520456681832, -50.56795468949766]}}]}